start=new Date('2022-09-04T00:00:00.000Z').valueOf();
sats=[{"COUNTRY_CODE":"US","GP_ID":"211671031","TLE_LINE2":"2 48100  53.0545 150.2771 0001550  69.1431 290.9724 15.06411743 79354","ECCENTRICITY":"0.00015500","REF_FRAME":"TEME","TIME_SYSTEM":"UTC","MEAN_ANOMALY":"290.9724","MEAN_ELEMENT_THEORY":"SGP4","BSTAR":"0.00009530300000","FILE":"3556957","REV_AT_EPOCH":"7935","ELEMENT_SET_NO":"999","INCLINATION":"53.0545","NORAD_CAT_ID":"48100","EPHEMERIS_TYPE":"0","OBJECT_TYPE":"PAYLOAD","SITE":"AFETR","DECAY_DATE":null,"MEAN_MOTION_DDOT":"0.0000000000000","TLE_LINE1":"1 48100U 21027J   22246.90361153  .00001139  00000-0  95303-4 0  9997","RCS_SIZE":"MEDIUM","ARG_OF_PERICENTER":"69.1431","SEMIMAJOR_AXIS":"6925.313","MEAN_MOTION_DOT":"0.00001139","EPOCH":"2022-09-03T21:41:12.036192","CENTER_NAME":"EARTH","RA_OF_ASC_NODE":"150.2771","PERIAPSIS":"546.104","MEAN_MOTION":"15.06411743","LAUNCH_DATE":"2021-04-07","APOAPSIS":"548.251","CLASSIFICATION_TYPE":"U","OBJECT_NAME":"STARLINK-2430","OBJECT_ID":"2021-027J","PERIOD":"95.591"},{"COUNTRY_CODE":"US","GP_ID":"211641901","TLE_LINE2":"2 48101  53.0543 163.6315 0001539  71.0501 289.0654 15.06402997 78702","ECCENTRICITY":"0.00015390","REF_FRAME":"TEME","TIME_SYSTEM":"UTC","MEAN_ELEMENT_THEORY":"SGP4","MEAN_ANOMALY":"289.0654","FILE":"3556642","BSTAR":"0.00013718000000","REV_AT_EPOCH":"7870","ELEMENT_SET_NO":"999","INCLINATION":"53.0543","NORAD_CAT_ID":"48101","EPHEMERIS_TYPE":"0","OBJECT_TYPE":"PAYLOAD","SITE":"AFETR","DECAY_DATE":null,"MEAN_MOTION_DDOT":"0.0000000000000","TLE_LINE1":"1 48101U 21027K   22246.15719102  .00001763  00000-0  13718-3 0  9998","RCS_SIZE":"LARGE","ARG_OF_PERICENTER":"71.0501","SEMIMAJOR_AXIS":"6925.339","MEAN_MOTION_DOT":"0.00001763","EPOCH":"2022-09-03T03:46:21.304128","CENTER_NAME":"EARTH","PERIAPSIS":"546.139","RA_OF_ASC_NODE":"163.6315","MEAN_MOTION":"15.06402997","LAUNCH_DATE":"2021-04-07","CLASSIFICATION_TYPE":"U","APOAPSIS":"548.270","OBJECT_NAME":"STARLINK-2436","OBJECT_ID":"2021-027K","PERIOD":"95.592"},{"ECCENTRICITY":"0.00014970","TLE_LINE2":"2 48102  53.0535 151.0586 0001497  75.7737 284.3418 15.06396439 79328","COUNTRY_CODE":"US","GP_ID":"211670030","BSTAR":"0.00007347900000","FILE":"3556957","TIME_SYSTEM":"UTC","MEAN_ELEMENT_THEORY":"SGP4","MEAN_ANOMALY":"284.3418","REF_FRAME":"TEME","ELEMENT_SET_NO":"999","INCLINATION":"53.0535","REV_AT_EPOCH":"7932","EPHEMERIS_TYPE":"0","NORAD_CAT_ID":"48102","RCS_SIZE":"LARGE","TLE_LINE1":"1 48102U 21027L   22246.73038026  .00000813  00000-0  73479-4 0  9998","MEAN_MOTION_DDOT":"0.0000000000000","OBJECT_TYPE":"PAYLOAD","SITE":"AFETR","DECAY_DATE":null,"CENTER_NAME":"EARTH","EPOCH":"2022-09-03T17:31:44.854464","SEMIMAJOR_AXIS":"6925.359","MEAN_MOTION_DOT":"0.00000813","ARG_OF_PERICENTER":"75.7737","APOAPSIS":"548.261","CLASSIFICATION_TYPE":"U","OBJECT_NAME":"STARLINK-2437","OBJECT_ID":"2021-027L","MEAN_MOTION":"15.06396439","LAUNCH_DATE":"2021-04-07","PERIAPSIS":"546.188","RA_OF_ASC_NODE":"151.0586","PERIOD":"95.592"},{"MEAN_MOTION_DOT":"0.00001838","SEMIMAJOR_AXIS":"6925.361","ARG_OF_PERICENTER":"73.1547","CENTER_NAME":"EARTH","EPOCH":"2022-09-03T03:26:28.199616","MEAN_MOTION_DDOT":"0.0000000000000","DECAY_DATE":null,"SITE":"AFETR","OBJECT_TYPE":"PAYLOAD","RCS_SIZE":"LARGE","TLE_LINE1":"1 48103U 21027M   22246.14338194  .00001838  00000-0  14225-3 0  9994","PERIOD":"95.592","PERIAPSIS":"546.007","RA_OF_ASC_NODE":"153.7085","OBJECT_ID":"2021-027M","OBJECT_NAME":"STARLINK-2438","CLASSIFICATION_TYPE":"U","APOAPSIS":"548.445","LAUNCH_DATE":"2021-04-07","MEAN_MOTION":"15.06396050","REF_FRAME":"TEME","FILE":"3556494","BSTAR":"0.00014225000000","MEAN_ELEMENT_THEORY":"SGP4","MEAN_ANOMALY":"286.9635","TIME_SYSTEM":"UTC","TLE_LINE2":"2 48103  53.0555 153.7085 0001760  73.1547 286.9635 15.06396050 79236","GP_ID":"211635747","COUNTRY_CODE":"US","ECCENTRICITY":"0.00017600","NORAD_CAT_ID":"48103","EPHEMERIS_TYPE":"0","REV_AT_EPOCH":"7923","ELEMENT_SET_NO":"999","INCLINATION":"53.0555"},{"EPHEMERIS_TYPE":"0","NORAD_CAT_ID":"48104","ELEMENT_SET_NO":"999","INCLINATION":"53.0533","REV_AT_EPOCH":"7926","BSTAR":"0.00008687600000","FILE":"3556957","TIME_SYSTEM":"UTC","MEAN_ELEMENT_THEORY":"SGP4","MEAN_ANOMALY":"277.5023","REF_FRAME":"TEME","ECCENTRICITY":"0.00013890","TLE_LINE2":"2 48104  53.0533 155.9659 0001389  82.6124 277.5023 15.06402624 79262","COUNTRY_CODE":"US","GP_ID":"211670531","PERIOD":"95.592","CLASSIFICATION_TYPE":"U","APOAPSIS":"548.167","OBJECT_NAME":"STARLINK-2439","OBJECT_ID":"2021-027N","MEAN_MOTION":"15.06402624","LAUNCH_DATE":"2021-04-07","RA_OF_ASC_NODE":"155.9659","PERIAPSIS":"546.244","CENTER_NAME":"EARTH","EPOCH":"2022-09-03T18:00:15.723072","SEMIMAJOR_AXIS":"6925.341","MEAN_MOTION_DOT":"0.00001013","ARG_OF_PERICENTER":"82.6124","TLE_LINE1":"1 48104U 21027N   22246.75018198  .00001013  00000-0  86876-4 0  9998","RCS_SIZE":"LARGE","MEAN_MOTION_DDOT":"0.0000000000000","OBJECT_TYPE":"PAYLOAD","SITE":"AFETR","DECAY_DATE":null},{"REF_FRAME":"TEME","TIME_SYSTEM":"UTC","MEAN_ANOMALY":"277.2460","MEAN_ELEMENT_THEORY":"SGP4","FILE":"3556957","BSTAR":"0.00006702500000","COUNTRY_CODE":"US","GP_ID":"211670774","TLE_LINE2":"2 48105  53.0549 100.4907 0001417  82.8690 277.2460 15.06408993 80048","ECCENTRICITY":"0.00014170","NORAD_CAT_ID":"48105","EPHEMERIS_TYPE":"0","REV_AT_EPOCH":"8004","ELEMENT_SET_NO":"999","INCLINATION":"53.0549","ARG_OF_PERICENTER":"82.8690","SEMIMAJOR_AXIS":"6925.321","MEAN_MOTION_DOT":"0.00000717","EPOCH":"2022-09-03T20:33:31.458240","CENTER_NAME":"EARTH","OBJECT_TYPE":"PAYLOAD","DECAY_DATE":null,"SITE":"AFETR","MEAN_MOTION_DDOT":"0.0000000000000","RCS_SIZE":"LARGE","TLE_LINE1":"1 48105U 21027P   22246.85661410  .00000717  00000-0  67025-4 0  9996","PERIOD":"95.592","PERIAPSIS":"546.205","RA_OF_ASC_NODE":"100.4907","MEAN_MOTION":"15.06408993","LAUNCH_DATE":"2021-04-07","APOAPSIS":"548.167","CLASSIFICATION_TYPE":"U","OBJECT_ID":"2021-027P","OBJECT_NAME":"STARLINK-2440"},{"NORAD_CAT_ID":"48106","EPHEMERIS_TYPE":"0","REV_AT_EPOCH":"7933","ELEMENT_SET_NO":"999","INCLINATION":"53.0543","REF_FRAME":"TEME","MEAN_ANOMALY":"290.0242","MEAN_ELEMENT_THEORY":"SGP4","TIME_SYSTEM":"UTC","FILE":"3556957","BSTAR":"0.00005695700000","GP_ID":"211669530","COUNTRY_CODE":"US","TLE_LINE2":"2 48106  53.0543 150.8680 0001445  70.0902 290.0242 15.06390316 79336","ECCENTRICITY":"0.00014450","PERIOD":"95.593","PERIAPSIS":"546.243","RA_OF_ASC_NODE":"150.8680","LAUNCH_DATE":"2021-04-07","MEAN_MOTION":"15.06390316","OBJECT_NAME":"STARLINK-2442","OBJECT_ID":"2021-027Q","APOAPSIS":"548.244","CLASSIFICATION_TYPE":"U","ARG_OF_PERICENTER":"70.0902","MEAN_MOTION_DOT":"0.00000567","SEMIMAJOR_AXIS":"6925.378","EPOCH":"2022-09-03T18:35:27.009888","CENTER_NAME":"EARTH","DECAY_DATE":null,"SITE":"AFETR","OBJECT_TYPE":"PAYLOAD","MEAN_MOTION_DDOT":"0.0000000000000","TLE_LINE1":"1 48106U 21027Q   22246.77461817  .00000567  00000-0  56957-4 0  9992","RCS_SIZE":"LARGE"},{"GP_ID":"211669780","COUNTRY_CODE":"US","TLE_LINE2":"2 48107  53.0537 151.0898 0001644  75.0902 285.0268 15.06401998 79320","ECCENTRICITY":"0.00016440","REF_FRAME":"TEME","MEAN_ANOMALY":"285.0268","MEAN_ELEMENT_THEORY":"SGP4","TIME_SYSTEM":"UTC","BSTAR":"0.00014560000000","FILE":"3556957","REV_AT_EPOCH":"7932","ELEMENT_SET_NO":"999","INCLINATION":"53.0537","NORAD_CAT_ID":"48107","EPHEMERIS_TYPE":"0","SITE":"AFETR","DECAY_DATE":null,"OBJECT_TYPE":"PAYLOAD","MEAN_MOTION_DDOT":"0.0000000000000","TLE_LINE1":"1 48107U 21027R   22246.72300456  .00001888  00000-0  14560-3 0  9999","RCS_SIZE":"LARGE","ARG_OF_PERICENTER":"75.0902","MEAN_MOTION_DOT":"0.00001888","SEMIMAJOR_AXIS":"6925.342","EPOCH":"2022-09-03T17:21:07.593984","CENTER_NAME":"EARTH","PERIAPSIS":"546.069","RA_OF_ASC_NODE":"151.0898","LAUNCH_DATE":"2021-04-07","MEAN_MOTION":"15.06401998","OBJECT_NAME":"STARLINK-2443","OBJECT_ID":"2021-027R","APOAPSIS":"548.346","CLASSIFICATION_TYPE":"U","PERIOD":"95.592"},{"INCLINATION":"53.0539","ELEMENT_SET_NO":"999","REV_AT_EPOCH":"7918","EPHEMERIS_TYPE":"0","NORAD_CAT_ID":"48108","ECCENTRICITY":"0.00012770","TLE_LINE2":"2 48108  53.0539 160.9102 0001277  75.9977 284.1154 15.06407347 79185","COUNTRY_CODE":"US","GP_ID":"211671032","BSTAR":"0.00011157000000","FILE":"3556957","TIME_SYSTEM":"UTC","MEAN_ANOMALY":"284.1154","MEAN_ELEMENT_THEORY":"SGP4","REF_FRAME":"TEME","CLASSIFICATION_TYPE":"U","APOAPSIS":"548.075","OBJECT_ID":"2021-027S","OBJECT_NAME":"STARLINK-2444","MEAN_MOTION":"15.06407347","LAUNCH_DATE":"2021-04-07","PERIAPSIS":"546.307","RA_OF_ASC_NODE":"160.9102","PERIOD":"95.592","TLE_LINE1":"1 48108U 21027S   22246.76262143  .00001381  00000-0  11157-3 0  9991","RCS_SIZE":"LARGE","MEAN_MOTION_DDOT":"0.0000000000000","OBJECT_TYPE":"PAYLOAD","SITE":"AFETR","DECAY_DATE":null,"CENTER_NAME":"EARTH","EPOCH":"2022-09-03T18:18:10.491552","SEMIMAJOR_AXIS":"6925.326","MEAN_MOTION_DOT":"0.00001381","ARG_OF_PERICENTER":"75.9977"},{"ECCENTRICITY":"0.00019220","TLE_LINE2":"2 48109  53.0547 173.8239 0001922  61.8477 298.2706 15.06391522 78955","GP_ID":"211634745","COUNTRY_CODE":"US","FILE":"3556494","BSTAR":"-0.00001776200000","MEAN_ELEMENT_THEORY":"SGP4","MEAN_ANOMALY":"298.2706","TIME_SYSTEM":"UTC","REF_FRAME":"TEME","INCLINATION":"53.0547","ELEMENT_SET_NO":"999","REV_AT_EPOCH":"7895","EPHEMERIS_TYPE":"0","NORAD_CAT_ID":"48109","TLE_LINE1":"1 48109U 21027T   22246.11299301 -.00000546  00000-0 -17762-4 0  9990","RCS_SIZE":"LARGE","MEAN_MOTION_DDOT":"0.0000000000000","SITE":"AFETR","DECAY_DATE":null,"OBJECT_TYPE":"PAYLOAD","CENTER_NAME":"EARTH","EPOCH":"2022-09-03T02:42:42.596064","MEAN_MOTION_DOT":"-0.00000546","SEMIMAJOR_AXIS":"6925.375","ARG_OF_PERICENTER":"61.8477","OBJECT_NAME":"STARLINK-2445","OBJECT_ID":"2021-027T","CLASSIFICATION_TYPE":"U","APOAPSIS":"548.571","LAUNCH_DATE":"2021-04-07","MEAN_MOTION":"15.06391522","RA_OF_ASC_NODE":"173.8239","PERIAPSIS":"545.908","PERIOD":"95.593"}];
